[Satellite]
VERSION=1.1
NAME=AO-85
NICKNAME=AO-85
TLE1=1 40967U 15058D   20072.35663684  .00000009  00000-0  20299-4 0  9778
TLE2=2 40967  64.7737  65.6109 0171582 110.8178 251.1400 14.76080887147249
STATUS=0
